CUBEBUG-2 (LO-74)       
1 39440U 13066AA  26166.38852800  .00003783  00000+0  35100-3 0  9993
2 39440  97.8905 115.3590 0058508  34.8517 325.6511 14.93747885676725
FUNCUBE-1 (AO-73)       
1 39444U 13066AE  26166.46559247  .00005832  00000+0  36309-3 0  9994
2 39444  97.8272 137.8755 0035504 207.0229 152.9152 15.09471681679409
UWE-3                   
1 39446U 13066AG  26166.41095872  .00003615  00000+0  31229-3 0  9993
2 39446  97.8693 122.4726 0047855 327.0614  32.7628 14.97011844677317
UNISAT-6                
1 40012U 14033C   26166.38519403  .00002497  00000+0  27116-3 0  9993
2 40012  97.7874 319.1286 0046291  75.0953 285.5383 14.88238232645899
DUCHIFAT-1              
1 40021U 14033M   26166.42257015  .00087303  00000+0  90897-3 0  9991
2 40021  98.0462 225.3358 0003280 119.3803 240.7782 15.64281009655477
QB50P1                  
1 40025U 14033R   26166.56831469  .00007133  00000+0  35185-3 0  9993
2 40025  98.0960 177.6007 0007682 221.6020 138.4628 15.18240486652788
LILACSAT-2              
1 40908U 15049K   26166.59528161  .00014930  00000+0  25496-3 0  9993
2 40908  97.4644 203.3763 0005412 252.6987 107.3673 15.51400500595504
FOX-1A (AO-85)          
1 40967U 15058D   26166.60861654  .00002082  00000+0  19417-3 0  9998
2 40967  64.7762 283.8894 0130356  57.2038 304.1552 14.90963368113335
CAS-2T & KS-1Q          
1 41847U 16066G   26166.16278910  .00001557  00000+0  22513-3 0  9991
2 41847  98.3821 241.9223 0342730 135.6008 227.3214 14.44688208504502
RADFXSAT (FOX-1B)       
1 43017U 17073E   26166.62044886  .00007281  00000+0  31888-3 0  9990
2 43017  97.4705  33.8675 0149766 334.7230  24.6723 15.12698959465156
DIWATA-2B               
1 43678U 18084H   26166.63605284  .00002304  00000+0  18806-3 0  9998
2 43678  98.1175   2.7770 0012391 175.1096 185.0250 15.00446370415987
ES'HAIL 2               
1 43700U 18090A   26166.54929358  .00000146  00000+0  00000+0 0  9997
2 43700   0.0181   9.4032 0001579 115.5396   2.4214  1.00269803 27669
FOX-1CLIFF (AO-95)      
1 43770U 18099N   26166.11139331  .00011091  00000+0  42485-3 0  9998
2 43770  97.4386 226.3649 0008201   5.4671 354.6656 15.26676025412907
ITASAT                  
1 43786U 18099AE  26166.37485499  .00005444  00000+0  26262-3 0  9992
2 43786  97.4029 217.9224 0012300   6.7006 353.4391 15.19036687412633
JY1SAT (JO-97)          
1 43803U 18099AX  26166.07308693  .00015590  00000+0  48189-3 0  9994
2 43803  97.4132 228.8995 0004244 272.7751  87.3006 15.33596637413307
UWE-4                   
1 43880U 18111E   26166.53236111  .00028345  00000+0  58058-3 0  9998
2 43880  97.5855  94.8474 0005794 350.1958   9.9176 15.46038533410528
TIANYAN 01              
1 44881U 19093C   26166.56387360  .00001261  00000+0  14821-3 0  9994
2 44881  97.7539 238.8353 0015112  91.9147 268.3800 14.86519165351170
RS-44 & BREEZE-KM R/B   
1 44909U 19096E   26166.59792764  .00000010  00000+0 -90401-5 0  9991
2 44909  82.5218 340.7612 0218109 147.8718 213.5894 12.79748870302149
SALSAT                  
1 46495U 20068K   26166.57567589  .00006463  00000+0  22682-3 0  9998
2 46495  97.8844 169.5420 0008147 315.1312  44.9267 15.29779983315116
XW-3 (CAS-9)            
1 50466U 21131B   26166.59680760  .00000478  00000+0  16137-3 0  9990
2 50466  98.4985 258.9948 0005366 100.4652 259.7142 14.41356573234883
GREENCUBE (IO-117)      
1 53109U 22080E   26164.29338770 -.00000003  00000+0  00000+0 0  9990
2 53109  70.1444 299.5995 0008910 290.4576  69.5127  6.42583230 91811
UMKA 1 (RS40S)          
1 57172U 23091G   26166.58060113  .00005909  00000+0  27048-3 0  9998
2 57172  97.5052 225.2839 0014191 122.6426 237.6181 15.20802870163766
CUBESX-HSE 3 (RS42S)    
1 57178U 23091N   26166.60543383  .00011354  00000+0  37861-3 0  9997
2 57178  97.5095 232.1724 0012051  99.5707 260.6896 15.31181196164185
MONITOR-3 (RS58S)       
1 57180U 23091Q   26166.56094179  .00009009  00000+0  33356-3 0  9998
2 57180  97.5087 229.9948 0013114 105.7902 254.4785 15.27814739164043
MONITOR-4 (RS57S)       
1 57182U 23091S   26166.60558081  .00008676  00000+0  32055-3 0  9996
2 57182  97.5081 230.0109 0013114 105.9945 254.2740 15.27900036164056
MONITOR-2 (RS39S)       
1 57184U 23091U   26166.59983944  .00004299  00000+0  20897-3 0  9994
2 57184  97.5075 224.8929 0012696 115.8822 244.3723 15.18898081163719
SVYATOBOR 1 (RS60S)     
1 57187U 23091X   26166.55176982  .00007614  00000+0  29324-3 0  9997
2 57187  97.5094 230.3596 0010896  99.2735 260.9736 15.26592156164063
VIZARD-METEO (RS38S)    
1 57189U 23091Z   26166.58411197  .00014203  00000+0  40705-3 0  9990
2 57189  97.5097 236.0367 0008358  82.5639 277.6554 15.35983366164447
POLYTECH-UNIVERSE 3 (R*)
1 57191U 23091AB  26166.56138178  .00004608  00000+0  22213-3 0  9998
2 57191  97.5050 224.3593 0016790 131.9468 228.3201 15.19099973163702
UTMN 2 (RS27S)          
1 57203U 23091AP  26166.55856940  .00011036  00000+0  35897-3 0  9990
2 57203  97.5092 233.7568 0009341  88.6525 271.5787 15.32018248164299
